{
  "norad_id": 63509,
  "name": "STARLINK-33678",
  "history": [
    {
      "epoch": "2026-03-28T22:06:45.986112Z",
      "apogee_km": 475.7696420009561,
      "perigee_km": 474.44628039894724,
      "latitude_deg": 5.1583449470545205e-05,
      "longitude_deg": -107.41894565674333,
      "height_km": 476.00924583499545,
      "semi_major_axis_km": 6853.244961199951,
      "eccentricity": 9.655e-05,
      "inclination_deg": 53.1589,
      "raan_deg": 50.6075,
      "arg_perigee_deg": 90.252,
      "mean_anomaly_deg": 269.8592,
      "mean_motion_rev_day": 15.30235873
    },
    {
      "epoch": "2026-03-29T04:22:58.785312Z",
      "apogee_km": 475.9933981971335,
      "perigee_km": 474.43631665512567,
      "latitude_deg": -2.719641568628782e-06,
      "longitude_deg": 157.05547507832964,
      "height_km": 476.0256489707966,
      "semi_major_axis_km": 6853.35185742613,
      "eccentricity": 0.0001136,
      "inclination_deg": 53.1586,
      "raan_deg": 49.3928,
      "arg_perigee_deg": 83.5597,
      "mean_anomaly_deg": 276.5533,
      "mean_motion_rev_day": 15.30200071
    },
    {
      "epoch": "2026-03-30T02:19:43.599360Z",
      "apogee_km": 476.0456492982685,
      "perigee_km": 474.40769538057793,
      "latitude_deg": 2.0027358791071997e-05,
      "longitude_deg": -177.28141387422673,
      "height_km": 475.8883536547304,
      "semi_major_axis_km": 6853.363672339423,
      "eccentricity": 0.0001195,
      "inclination_deg": 53.1593,
      "raan_deg": 45.1439,
      "arg_perigee_deg": 73.2161,
      "mean_anomaly_deg": 286.8971,
      "mean_motion_rev_day": 15.30196114
    }
  ]
}